$$SOE
2460147.500000000, A.D. 2023-Jul-22 00:00:00.0000, -3.794767109130471E+08, -2.158995028448409E+08, -4.981931865924969E+06,
2460154.500000000, A.D. 2023-Jul-29 00:00:00.0000, -3.744840759850008E+08, -2.250231631458614E+08, -4.840891584565088E+06,
2460161.500000000, A.D. 2023-Aug-05 00:00:00.0000, -3.692735430904846E+08, -2.340158723459505E+08, -4.697031993266255E+06,
2460168.500000000, A.D. 2023-Aug-12 00:00:00.0000, -3.638485709151581E+08, -2.428726665933290E+08, -4.550442061524898E+06,
2460175.500000000, A.D. 2023-Aug-19 00:00:00.0000, -3.582127187801036E+08, -2.515886743270544E+08, -4.401211898571730E+06,
2460182.500000000, A.D. 2023-Aug-26 00:00:00.0000, -3.523696442467231E+08, -2.601591176279784E+08, -4.249432698295414E+06,
2460189.500000000, A.D. 2023-Sep-02 00:00:00.0000, -3.463231007574039E+08, -2.685793135842499E+08, -4.095196689443126E+06,
2460196.500000000, A.D. 2023-Sep-09 00:00:00.0000, -3.400769352763644E+08, -2.768446757147534E+08, -3.938597097742587E+06,
2460203.500000000, A.D. 2023-Sep-16 00:00:00.0000, -3.336350857629813E+08, -2.849507155106328E+08, -3.779728140041605E+06,
2460210.500000000, A.D. 2023-Sep-23 00:00:00.0000, -3.270015780617665E+08, -2.928930438101948E+08, -3.618685065116167E+06,
2460217.500000000, A.D. 2023-Sep-30 00:00:00.0000, -3.201805225487626E+08, -3.006673708181988E+08, -3.455564112548918E+06,
2460224.500000000, A.D. 2023-Oct-07 00:00:00.0000, -3.131761128875575E+08, -3.082695053140764E+08, -3.290462218033984E+06,
2460231.500000000, A.D. 2023-Oct-14 00:00:00.0000, -3.059926258548779E+08, -3.156953563651640E+08, -3.123476831219152E+06,
2460238.500000000, A.D. 2023-Oct-21 00:00:00.0000, -2.986344190085145E+08, -3.229409359456391E+08, -2.954706011111766E+06,
2460245.500000000, A.D. 2023-Oct-28 00:00:00.0000, -2.911059276230566E+08, -3.300023602028192E+08, -2.784248483336374E+06,
2460252.500000000, A.D. 2023-Nov-04 00:00:00.0000, -2.834116621432149E+08, -3.368758501419974E+08, -2.612203607152194E+06,
2460259.500000000, A.D. 2023-Nov-11 00:00:00.0000, -2.755562059761063E+08, -3.435577323308186E+08, -2.438671317267686E+06,
2460266.500000000, A.D. 2023-Nov-18 00:00:00.0000, -2.675442134020220E+08, -3.500444396895571E+08, -2.263752065681487E+06,
2460273.500000000, A.D. 2023-Nov-25 00:00:00.0000, -2.593804075305201E+08, -3.563325123473056E+08, -2.087546768243805E+06,
2460280.500000000, A.D. 2023-Dec-02 00:00:00.0000, -2.510695782737482E+08, -3.624185985776201E+08, -1.910156759258449E+06,
2460287.500000000, A.D. 2023-Dec-09 00:00:00.0000, -2.426165802591473E+08, -3.682994558744315E+08, -1.731683765911639E+06,
2460294.500000000, A.D. 2023-Dec-16 00:00:00.0000, -2.340263303936885E+08, -3.739719521573449E+08, -1.552229927782089E+06,
2460301.500000000, A.D. 2023-Dec-23 00:00:00.0000, -2.253038047307055E+08, -3.794330664204143E+08, -1.371897837204605E+06,
2460308.500000000, A.D. 2023-Dec-30 00:00:00.0000, -2.164540359786957E+08, -3.846798877762187E+08, -1.190790391889125E+06,
2460315.500000000, A.D. 2024-Jan-06 00:00:00.0000, -2.074821134229856E+08, -3.897096152570742E+08, -1.009010490378767E+06,
2460322.500000000, A.D. 2024-Jan-13 00:00:00.0000, -1.983931820864162E+08, -3.945195601829808E+08, -8.266610093616843E+05,
2460329.500000000, A.D. 2024-Jan-20 00:00:00.0000, -1.891924399058502E+08, -3.991071480148535E+08, -6.438449231770337E+05,
2460336.500000000, A.D. 2024-Jan-27 00:00:00.0000, -1.798851349538945E+08, -4.034699190422642E+08, -4.606653261846602E+05,
2460343.500000000, A.D. 2024-Feb-03 00:00:00.0000, -1.704765631343098E+08, -4.076055288540223E+08, -2.772253962506950E+05,
2460350.500000000, A.D. 2024-Feb-10 00:00:00.0000, -1.609720660728720E+08, -4.115117488811986E+08, -9.362834865906835E+04,
2460357.500000000, A.D. 2024-Feb-17 00:00:00.0000, -1.513770290626798E+08, -4.151864670029196E+08, 9.002260729601979E+04,
2460364.500000000, A.D. 2024-Feb-24 00:00:00.0000, -1.416968790246045E+08, -4.186276881996523E+08, 2.736243066595495E+05,
2460371.500000000, A.D. 2024-Mar-02 00:00:00.0000, -1.319370824503168E+08, -4.218335352881054E+08, 4.570736564774811E+05,
2460378.500000000, A.D. 2024-Mar-09 00:00:00.0000, -1.221031431871269E+08, -4.248022498037492E+08, 6.402676347060502E+05,
2460385.500000000, A.D. 2024-Mar-16 00:00:00.0000, -1.122005996688720E+08, -4.275321928370440E+08, 8.231032401854396E+05,
2460392.500000000, A.D. 2024-Mar-23 00:00:00.0000, -1.022350216968550E+08, -4.300218447164735E+08, 1.005477493896663E+06,
2460399.500000000, A.D. 2024-Mar-30 00:00:00.0000, -9.221200901206957E+07, -4.322698035652575E+08, 1.187287694980532E+06,
2460406.500000000, A.D. 2024-Apr-06 00:00:00.0000, -8.213719140139990E+07, -4.342747860985112E+08, 1.368431632818699E+06,
2460413.500000000, A.D. 2024-Apr-13 00:00:00.0000, -7.201622678492765E+07, -4.360356298249248E+08, 1.548807497809500E+06,
2460420.500000000, A.D. 2024-Apr-20 00:00:00.0000, -6.185479823534384E+07, -4.375512939772695E+08, 1.728313797040552E+06,
2460427.500000000, A.D. 2024-Apr-27 00:00:00.0000, -5.165861144537718E+07, -4.388208597331848E+08, 1.906849368283480E+06,
2460434.500000000, A.D. 2024-May-04 00:00:00.0000, -4.143339255401582E+07, -4.398435304291608E+08, 2.084313426897705E+06,
2460441.500000000, A.D. 2024-May-11 00:00:00.0000, -3.118488609175265E+07, -4.406186318687334E+08, 2.260605615573794E+06,
2460448.500000000, A.D. 2024-May-18 00:00:00.0000, -2.091885296118737E+07, -4.411456127023547E+08, 2.435626051248819E+06,
2460455.500000000, A.D. 2024-May-25 00:00:00.0000, -1.064106842637348E+07, -4.414240448854962E+08, 2.609275366448075E+06,
2460462.500000000, A.D. 2024-Jun-01 00:00:00.0000, -3.573200494257573E+05, -4.414536242724345E+08, 2.781454735086381E+06,
2460469.500000000, A.D. 2024-Jun-08 00:00:00.0000, 9.926594673003348E+06, -4.412341713687946E+08, 2.952065858588368E+06,
2460476.500000000, A.D. 2024-Jun-15 00:00:00.0000, 2.020487137346486E+07, -4.407656316973965E+08, 3.121010920608699E+06,
2460483.500000000, A.D. 2024-Jun-22 00:00:00.0000, 3.047170157284342E+07, -4.400480746008612E+08, 3.288192698937356E+06,
2460490.500000000, A.D. 2024-Jun-29 00:00:00.0000, 4.072127301411177E+07, -4.390816922988759E+08, 3.453514880590320E+06,
2460497.500000000, A.D. 2024-Jul-06 00:00:00.0000, 5.094777021789610E+07, -4.378668016682960E+08, 3.616882135594726E+06,
2460504.500000000, A.D. 2024-Jul-13 00:00:00.0000, 6.114537721178444E+07, -4.364038459210976E+08, 3.778200001586229E+06,
2460511.500000000, A.D. 2024-Jul-20 00:00:00.0000, 7.130828044983254E+07, -4.346933950314366E+08, 3.937374855402529E+06,
2460518.500000000, A.D. 2024-Jul-27 00:00:00.0000, 8.143067126803805E+07, -4.327361458709668E+08, 4.094313953521013E+06,
2460525.500000000, A.D. 2024-Aug-03 00:00:00.0000, 9.150674815019223E+07, -4.305329224269800E+08, 4.248925485654771E+06,
2460532.500000000, A.D. 2024-Aug-10 00:00:00.0000, 1.015307189709067E+08, -4.280846761071224E+08, 4.401118625825405E+06,
2460539.500000000, A.D. 2024-Aug-17 00:00:00.0000, 1.114968032639434E+08, -4.253924861075599E+08, 4.550803578113496E+06,
2460546.500000000, A.D. 2024-Aug-24 00:00:00.0000, 1.213992345447790E+08, -4.224575598649186E+08, 4.697891612388998E+06,
2460553.500000000, A.D. 2024-Aug-31 00:00:00.0000, 1.312322628045705E+08, -4.192812336518030E+08, 4.842295074102581E+06,
2460560.500000000, A.D. 2024-Sep-07 00:00:00.0000, 1.409901575425518E+08, -4.158649731885172E+08, 4.983927344774038E+06,
2460567.500000000, A.D. 2024-Sep-14 00:00:00.0000, 1.506672114231313E+08, -4.122103732743918E+08, 5.122702826669365E+06,
2460574.500000000, A.D. 2024-Sep-21 00:00:00.0000, 1.602577425292102E+08, -4.083191560247136E+08, 5.258537171357155E+06,
2460581.500000000, A.D. 2024-Sep-28 00:00:00.0000, 1.697560947244978E+08, -4.041931709379547E+08, 5.391347532841861E+06,
2460588.500000000, A.D. 2024-Oct-05 00:00:00.0000, 1.791566397956696E+08, -3.998343967888592E+08, 5.521052508600950E+06,
2460595.500000000, A.D. 2024-Oct-12 00:00:00.0000, 1.884537810146836E+08, -3.952449423660500E+08, 5.647572045161188E+06,
2460602.500000000, A.D. 2024-Oct-19 00:00:00.0000, 1.976419563699105E+08, -3.904270463232216E+08, 5.770827446749121E+06,
2460609.500000000, A.D. 2024-Oct-26 00:00:00.0000, 2.067156414327063E+08, -3.853830769417413E+08, 5.890741424431682E+06,
2460616.500000000, A.D. 2024-Nov-02 00:00:00.0000, 2.156693521164470E+08, -3.801155319481871E+08, 6.007238149827227E+06,
2460623.500000000, A.D. 2024-Nov-09 00:00:00.0000, 2.244976474256440E+08, -3.746270383612513E+08, 6.120243305994883E+06,
2460630.500000000, A.D. 2024-Nov-16 00:00:00.0000, 2.331951322230823E+08, -3.689203523640199E+08, 6.229684132999048E+06,
2460637.500000000, A.D. 2024-Nov-23 00:00:00.0000, 2.417564600640975E+08, -3.629983592491490E+08, 6.335489459758341E+06,
2460644.500000000, A.D. 2024-Nov-30 00:00:00.0000, 2.501763363081037E+08, -3.568640734781848E+08, 6.437589699764758E+06,
2460651.500000000, A.D. 2024-Dec-07 00:00:00.0000, 2.584495219279723E+08, -3.505206384337846E+08, 6.535916806957096E+06,
2460658.500000000, A.D. 2024-Dec-14 00:00:00.0000, 2.665708373285141E+08, -3.439713246404122E+08, 6.630404355370939E+06,
2460665.500000000, A.D. 2024-Dec-21 00:00:00.0000, 2.745351638536737E+08, -3.372195276922342E+08, 6.720987854041621E+06,
2460672.500000000, A.D. 2024-Dec-28 00:00:00.0000, 2.823374449526652E+08, -3.302687688508443E+08, 6.807604873660475E+06,
2460679.500000000, A.D. 2025-Jan-04 00:00:00.0000, 2.899726896016775E+08, -3.231226959318027E+08, 6.890194940954596E+06,
2460686.500000000, A.D. 2025-Jan-11 00:00:00.0000, 2.974359761600531E+08, -3.157850828169410E+08, 6.968699503712207E+06,
2460693.500000000, A.D. 2025-Jan-18 00:00:00.0000, 3.047224557436165E+08, -3.082598285083440E+08, 7.043061975739479E+06,
2460700.500000000, A.D. 2025-Jan-25 00:00:00.0000, 3.118273553578610E+08, -3.005509561954077E+08, 7.113227800872669E+06,
2460707.500000000, A.D. 2025-Feb-01 00:00:00.0000, 3.187459809795540E+08, -2.926626123619086E+08, 7.179144516439959E+06,
$$EOE